[{"OBJECT_NAME":"SHIJIAN-6 03A (SJ-6 03A)","OBJECT_ID":"2008-053A","EPOCH":"2026-03-10T00:26:18.438144","MEAN_MOTION":15.16068555,"ECCENTRICITY":0.00114273,"INCLINATION":97.8536,"RA_OF_ASC_NODE":98.9107,"ARG_OF_PERICENTER":1.7438,"MEAN_ANOMALY":358.3831,"EPHEMERIS_TYPE":0,"CLASSIFICATION_TYPE":"U","NORAD_CAT_ID":33408,"ELEMENT_SET_NO":999,"REV_AT_EPOCH":94793,"BSTAR":0.00035321357,"MEAN_MOTION_DOT":6.737e-5,"MEAN_MOTION_DDOT":0},{"OBJECT_NAME":"STARLINK-5701","OBJECT_ID":"2023-015AQ","EPOCH":"2026-03-09T22:00:01.999584","MEAN_MOTION":15.12694755,"ECCENTRICITY":0.00012786,"INCLINATION":42.9995,"RA_OF_ASC_NODE":337.5289,"ARG_OF_PERICENTER":234.4918,"MEAN_ANOMALY":21.7272,"EPHEMERIS_TYPE":0,"CLASSIFICATION_TYPE":"U","NORAD_CAT_ID":55487,"ELEMENT_SET_NO":999,"REV_AT_EPOCH":573,"BSTAR":0.0027927684,"MEAN_MOTION_DOT":0.00049878,"MEAN_MOTION_DDOT":0}]
